SL-16 R/B               
1 28353U 04021B   25188.92897670  .00000127  00000+0  91026-4 0  9991
2 28353  71.0017  26.1240 0003742  29.1879 330.9452 14.14556730 88228
CZ-4B R/B               
1 28415U 04035C   25188.96097809  .00005619  00000+0  22751-3 0  9994
2 28415  97.3785 221.5598 0037381 113.1435 247.3748 15.24432327142570
CZ-2C R/B               
1 28480U 04046B   25188.76132804  .00000077  00000+0  43657-4 0  9993
2 28480  98.1933 114.0554 0140102 158.6997 202.0097 14.26840989 73573
ARIANE 5 R/B            
1 28499U 04049H   25188.88827527  .00000654  00000+0  79617-4 0  9998
2 28499  98.2362 343.7308 0086451  64.7143 296.2996 14.84556734109461
CZ-2D R/B               
1 28738U 05024B   25188.76021011  .00014608  00000+0  31741-3 0  9998
2 28738  97.3668 193.1317 0006153 180.3580 179.7665 15.44431588101819
ALOS (DAICHI)           
1 28931U 06002A   25188.88483419  .00001096  00000+0  19624-3 0  9990
2 28931  98.0850 141.8190 0001604  56.2313 303.9045 14.68782289 37919
H-2A R/B                
1 28932U 06002B   25188.88326932  .00004496  00000+0  26168-3 0  9995
2 28932  98.2145 311.4379 0057923 352.7379   7.3003 15.11212667 57406
RESURS-DK 1             
1 29228U 06021A   25188.93330902  .00001339  00000+0  86175-4 0  9991
2 29228  69.9319 149.2682 0003305 174.5067 185.6135 15.11060226 50531
CZ-4B R/B               
1 29507U 06046C   25188.82611022  .00002929  00000+0  16264-3 0  9998
2 29507  97.5942 229.3866 0036314  36.5317 323.8381 15.13974411 23008
CZ-2C R/B               
1 31114U 07010B   25188.90092573  .00000064  00000+0  48588-4 0  9993
2 31114  98.3819 309.6523 0057896 286.3400  73.1416 14.20134705944978
COSMO-SKYMED 1          
1 31598U 07023A   25188.82970849  .00000161  00000+0  20488-4 0  9992
2 31598  97.8885  13.3459 0002952  52.8322 307.3167 14.94198069978303
GENESIS 2               
1 31789U 07028A   25188.91746682  .00107581  10904-4  46447-3 0  9990
2 31789  64.4735 315.4902 0025178 302.2773  57.5943 15.84475148997397
COSMOS 2428             
1 31792U 07029A   25188.85975207  .00000372  00000+0  22551-3 0  9996
2 31792  70.9410 357.2757 0005450 249.0710 110.9828 14.12877892929590
SL-16 R/B               
1 31793U 07029B   25188.80190954  .00000286  00000+0  17310-3 0  9991
2 31793  70.9766 327.1345 0001986 279.6111 184.3140 14.14786830930731
KORONAS-FOTON           
1 33504U 09003A   25188.93165492  .00004827  00000+0  13191-3 0  9998
2 33504  82.4317 168.9866 0010257 322.4233  37.6293 15.37073533908071
CZ-2C R/B               
1 37731U 11030B   25188.91973911  .00001008  00000+0  13591-3 0  9990
2 37731  97.8158 146.8611 0054949  67.4453 358.1630 14.80257129753873
H-2A R/B                
1 38341U 12025E   25188.81296983  .00001899  00000+0  18470-3 0  9998
2 38341  98.4374 132.3092 0047243  34.4483 325.9781 14.93121594711656
SHIJIAN-16 (SJ-16)      
1 39358U 13057A   25188.91967508  .00001166  00000+0  11933-3 0  9996
2 39358  74.9725 288.0987 0017485 344.6908  15.3748 14.91421371635000
SL-4 R/B                
1 39679U 14021B   25188.88606910  .00004769  00000+0  13680-3 0  9990
2 39679  51.6103  84.5384 0111189 295.6677  63.2853 15.31989653618986
ALOS-2                  
1 39766U 14029A   25188.88795808  .00001175  00000+0  16424-3 0  9997
2 39766  97.9227 285.9935 0001565  96.5834 263.5556 14.79473938600678
YAOGAN-29               
1 41038U 15069A   25188.97704373  .00000333  00000+0  48005-4 0  9990
2 41038  98.0336 211.4935 0002885  77.3876 282.7660 14.82659934519617
ASTRO-H (HITOMI)        
1 41337U 16012A   25188.89535683  .00002019  00000+0  12166-3 0  9999
2 41337  30.9988 133.8690 0009887  33.8121 326.3145 15.08140371515226
HXMT (HUIYAN)           
1 42758U 17034A   25188.62518457  .00004164  00000+0  23470-3 0  9996
2 42758  43.0153 295.3658 0033537 129.8988 230.4815 15.14031152445355
CZ-2C R/B               
1 43521U 18054D   25188.91383467  .00023060  00000+0  34303-3 0  9994
2 43521  35.1366 150.7607 0030078  87.8547 272.5624 15.53639106390373
SAOCOM 1A               
1 43641U 18076A   25188.89976265  .00000391  00000+0  55684-4 0  9990
2 43641  97.8886  15.5800 0001401  91.3249 268.8125 14.82156924365108
H-2A R/B                
1 43682U 18084L   25188.94595838  .00011093  00000+0  36651-3 0  9996
2 43682  98.8771 351.3043 0032510 145.2988 215.0379 15.31099570368219
SAOCOM 1B               
1 46265U 20059A   25188.93098732  .00000287  00000+0  42665-4 0  9997
2 46265  97.8889  14.7142 0001581  91.9379 268.2015 14.82161591262491
CSS (TIANHE)            
1 48274U 21035A   25187.28238512  .00020645  00000+0  27281-3 0  9999
2 48274  41.4649 264.7513 0013558 229.8701 130.0949 15.57755571239136
COSMOS 2550             
1 48865U 21056A   25188.92373749  .00007870  00000+0  24478-3 0  9992
2 48865  67.1436  61.3737 0008394 269.9259  90.0933 15.33832076225925
CZ-2C R/B               
1 52794U 22058K   25188.80836322  .00010754  00000+0  25502-3 0  9993
2 52794  50.1931 123.2703 0055448 261.2546  98.2136 15.40666666172238
GSLV R/B                
1 54149U 22138AN  25188.66888818  .00001626  00000+0  14594-3 0  9996
2 54149  87.3780 248.4031 0020655 326.8846  33.1090 14.94916613147300
XRISM                   
1 57800U 23137A   25188.96020376  .00003558  00000+0  21822-3 0  9991
2 57800  31.0028  62.3966 0007814 101.4624 258.6892 15.08265708100773
ACS3                    
1 59588U 24077B   25188.93972225  .00011982  00000+0  11544-1 0  9994
2 59588  97.4547 178.8566 0074345  65.4635 295.4249 13.78829813 60355
